HAWK-C                  
1 43799U 18099AT  26068.67261865  .00009431  00000+0  35663-3 0  9994
2 43799  97.4027 122.6817 0040363 277.4052  82.2601 15.26407167398720
LYRA-1                  
1 62664U 25009BH  26068.72653405  .00011728  00000+0  59700-3 0  9996
2 62664  97.4045 145.5025 0009825 171.7868 188.3529 15.16922567 63334
